NORAD_CAT_ID,OBJECT_NAME,OBJECT_TYPE,EPOCH,MEAN_MOTION,ECCENTRICITY,INCLINATION,RA_OF_ASC_NODE,ARG_OF_PERICENTER,MEAN_ANOMALY,BSTAR,MEAN_MOTION_DOT,MEAN_MOTION_DDOT,TLE_LINE0,TLE_LINE1,TLE_LINE2,SEMIMAJOR_AXIS,PERIOD,APOGEE,PERIGEE,DECAYED
53842.0,STARLINK-4754,PAYLOAD,2023-05-30 18:19:39,15.08836764,0.0001195,53.2158,165.7817,91.8077,268.3052,3.5894e-06,-2.31e-06,0.0,0 STARLINK-4754,1 53842U 22114AA  23150.76364880 -.00000231  00000-0  35894-5 0  9996,2 53842  53.2158 165.7817 0001195  91.8077 268.3052 15.08836764 39906,6917.89,95.438,540.582,538.929,0.0
53842.0,STARLINK-4754,PAYLOAD,2023-05-31 08:38:07,15.08839943,0.0001159,53.2156,163.1054,91.1297,268.9827,1.9854e-05,2.8e-07,0.0,0 STARLINK-4754,1 53842U 22114AA  23151.35980678  .00000028  00000-0  19854-4 0  9991,2 53842  53.2156 163.1054 0001159  91.1297 268.9827 15.08839943 39454,6917.881,95.438,540.547,538.944,0.0
53842.0,STARLINK-4754,PAYLOAD,2023-05-31 18:10:27,15.08828279,0.0001169,53.2156,161.3212,88.302,271.8106,-6.4466e-05,-1.313e-05,0.0,0 STARLINK-4754,1 53842U 22114AA  23151.75725867 -.00001313  00000-0 -64466-4 0  9991,2 53842  53.2156 161.3212 0001169  88.3020 271.8106 15.08828279 39513,6917.916,95.438,540.59,538.973,0.0
53842.0,STARLINK-4754,PAYLOAD,2023-06-01 06:53:32,15.08826189,0.0001149,53.2157,158.9426,86.5531,273.5592,-2.562e-05,-6.95e-06,0.0,0 STARLINK-4754,1 53842U 22114AA  23152.28718279 -.00000695  00000-0 -25620-4 0  9990,2 53842  53.2157 158.9426 0001149  86.5531 273.5592 15.08826189 40134,6917.923,95.438,540.582,538.993,0.0
53842.0,STARLINK-4754,PAYLOAD,2023-06-02 06:44:19,15.0883264,0.00012,53.2157,154.4821,85.283,274.8299,-1.6952e-06,-3.15e-06,0.0,0 STARLINK-4754,1 53842U 22114AA  23153.28078475 -.00000315  00000-0 -16952-5 0  9996,2 53842  53.2157 154.4821 0001200  85.2830 274.8299 15.08832640 39742,6917.903,95.438,540.598,538.938,0.0
53842.0,STARLINK-4754,PAYLOAD,2023-06-03 06:35:07,15.08832446,0.0001192,53.2155,150.0218,83.0614,277.0514,0.0001111,1.48e-05,0.0,0 STARLINK-4754,1 53842U 22114AA  23154.27438774  .00001480  00000-0  11110-3 0  9999,2 53842  53.2155 150.0218 0001192  83.0614 277.0514 15.08832446 40435,6917.903,95.438,540.593,538.944,0.0
53842.0,STARLINK-4754,PAYLOAD,2023-06-03 16:07:25,15.08836152,0.0001195,53.2154,148.2374,82.0504,278.0624,0.00010359,1.361e-05,0.0,0 STARLINK-4754,1 53842U 22114AA  23154.67182688  .00001361  00000-0  10359-3 0  9995,2 53842  53.2154 148.2374 0001195  82.0504 278.0624 15.08836152 39952,6917.892,95.438,540.584,538.93,0.0
53842.0,STARLINK-4754,PAYLOAD,2023-06-04 09:36:39,15.08843601,0.0001203,53.2153,144.9665,81.7552,278.3576,0.00010052,1.312e-05,0.0,0 STARLINK-4754,1 53842U 22114AA  23155.40046273  .00001312  00000-0  10052-3 0  9992,2 53842  53.2153 144.9665 0001203  81.7552 278.3576 15.08843601 40606,6917.869,95.437,540.567,538.902,0.0
53842.0,STARLINK-4754,PAYLOAD,2023-06-05 04:41:16,15.08852959,0.0001208,53.2155,141.398,81.3649,278.748,0.00012198,1.655e-05,0.0,0 STARLINK-4754,1 53842U 22114AA  23156.19533186  .00001655  00000-0  12198-3 0  9996,2 53842  53.2155 141.3980 0001208  81.3649 278.7480 15.08852959 40184,6917.841,95.437,540.541,538.87,0.0
53842.0,STARLINK-4754,PAYLOAD,2023-06-05 07:52:02,15.08854908,0.0001221,53.2154,140.8033,81.2561,278.8569,0.00013599,1.878e-05,0.0,0 STARLINK-4754,1 53842U 22114AA  23156.32780923  .00001878  00000-0  13599-3 0  9997,2 53842  53.2154 140.8033 0001221  81.2561 278.8569 15.08854908 40740,6917.835,95.437,540.544,538.855,0.0
53842.0,STARLINK-4754,PAYLOAD,2023-06-05 23:45:54,15.08844337,0.0001375,53.2159,137.8293,82.306,277.8089,6.0803e-06,-1.91e-06,0.0,0 STARLINK-4754,1 53842U 22114AA  23156.99021718 -.00000191  00000-0  60803-5 0  9990,2 53842  53.2159 137.8293 0001375  82.3060 277.8089 15.08844337 40308,6917.867,95.437,540.683,538.781,0.0
53842.0,STARLINK-4754,PAYLOAD,2023-06-06 06:07:27,15.08844445,0.0001195,53.2148,136.641,91.4711,268.6418,-1.0086e-05,-4.48e-06,0.0,0 STARLINK-4754,1 53842U 22114AA  23157.25517592 -.00000448  00000-0 -10086-4 0  9993,2 53842  53.2148 136.6410 0001195  91.4711 268.6418 15.08844445 40885,6917.867,95.437,540.558,538.905,0.0
53842.0,STARLINK-4754,PAYLOAD,2023-06-07 04:22:50,15.08847134,0.0001185,53.2157,132.4774,89.2319,270.8809,-4.9622e-05,-1.078e-05,0.0,0 STARLINK-4754,1 53842U 22114AA  23158.18253181 -.00001078  00000-0 -49622-4 0  9995,2 53842  53.2157 132.4774 0001185  89.2319 270.8809 15.08847134 40483,6917.859,95.437,540.543,538.904,0.0
53842.0,STARLINK-4754,PAYLOAD,2023-06-07 07:33:36,15.08850717,0.0001171,53.2156,131.8833,86.8149,273.2977,-1.6241e-05,-5.46e-06,0.0,0 STARLINK-4754,1 53842U 22114AA  23158.31500792 -.00000546  00000-0 -16241-4 0  9993,2 53842  53.2156 131.8833 0001171  86.8149 273.2977 15.08850717 41047,6917.848,95.437,540.523,538.903,0.0
53842.0,STARLINK-4754,PAYLOAD,2023-06-07 15:30:33,15.08842026,0.000112,53.2153,130.3927,79.9188,280.1931,-0.00013001,-2.356e-05,0.0,0 STARLINK-4754,1 53842U 22114AA  23158.64621531 -.00002356  00000-0 -13001-3 0  9995,2 53842  53.2153 130.3927 0001120  79.9188 280.1931 15.08842026 40558,6917.874,95.437,540.514,538.964,0.0
53842.0,STARLINK-4754,PAYLOAD,2023-06-08 04:13:38,15.08834626,0.0001181,53.2157,128.0137,95.0656,265.0471,-4.7056e-06,-3.63e-06,0.0,0 STARLINK-4754,1 53842U 22114AA  23159.17613787 -.00000363  00000-0 -47056-5 0  9993,2 53842  53.2157 128.0137 0001181  95.0656 265.0471 15.08834626 41172,6917.897,95.438,540.579,538.945,0.0
53842.0,STARLINK-4754,PAYLOAD,2023-06-08 15:21:19,15.08840074,0.000119,53.2159,125.9326,93.0522,267.0606,4.9189e-05,4.95e-06,0.0,0 STARLINK-4754,1 53842U 22114AA  23159.63981357  .00000495  00000-0  49189-4 0  9997,2 53842  53.2159 125.9326 0001190  93.0522 267.0606 15.08840074 41244,6917.88,95.438,540.568,538.922,0.0
53842.0,STARLINK-4754,PAYLOAD,2023-06-08 21:42:52,15.08842634,0.0001175,53.216,124.7429,92.8686,267.2441,3.8477e-05,3.25e-06,0.0,0 STARLINK-4754,1 53842U 22114AA  23159.90477237  .00000325  00000-0  38477-4 0  9994,2 53842  53.2160 124.7429 0001175  92.8686 267.2441 15.08842634 40745,6917.872,95.437,540.55,538.924,0.0
53842.0,STARLINK-4754,PAYLOAD,2023-06-09 04:04:24,15.08847845,0.0001156,53.2157,123.5556,85.8139,274.2985,8.8019e-05,1.114e-05,0.0,0 STARLINK-4754,1 53842U 22114AA  23160.16972701  .00001114  00000-0  88019-4 0  9994,2 53842  53.2157 123.5556 0001156  85.8139 274.2985 15.08847845 40787,6917.856,95.437,540.521,538.922,0.0
53842.0,STARLINK-4754,PAYLOAD,2023-06-09 21:33:39,15.08834912,0.0001186,53.2155,120.2857,79.3121,280.8004,7.9836e-05,9.83e-06,0.0,0 STARLINK-4754,1 53842U 22114AA  23160.89837534  .00000983  00000-0  79836-4 0  9998,2 53842  53.2155 120.2857 0001186  79.3121 280.8004 15.08834912 41434,6917.896,95.438,540.581,538.94,0.0
53842.0,STARLINK-4754,PAYLOAD,2023-06-10 03:55:11,15.08838283,0.0001185,53.2155,119.0948,86.4023,273.7104,9.1433e-05,1.168e-05,0.0,0 STARLINK-4754,1 53842U 22114AA  23161.16333314  .00001168  00000-0  91433-4 0  9999,2 53842  53.2155 119.0948 0001185  86.4023 273.7104 15.08838283 40931,6917.886,95.438,540.57,538.931,0.0
53842.0,STARLINK-4754,PAYLOAD,2023-06-10 21:24:26,15.08844375,0.0001146,53.2153,115.8235,94.9525,265.1598,-1.3108e-05,-4.96e-06,0.0,0 STARLINK-4754,1 53842U 22114AA  23161.89197218 -.00000496  00000-0 -13108-4 0  9998,2 53842  53.2153 115.8235 0001146  94.9525 265.1598 15.08844375 41583,6917.867,95.437,540.525,538.939,0.0
53842.0,STARLINK-4754,PAYLOAD,2023-06-11 03:45:58,15.08845102,0.0001193,53.2164,114.6369,91.2119,268.9009,0.00018492,2.657e-05,0.0,0 STARLINK-4754,1 53842U 22114AA  23162.15692554  .00002657  00000-0  18492-3 0  9990,2 53842  53.2164 114.6369 0001193  91.2119 268.9009 15.08845102 41083,6917.865,95.437,540.555,538.904,0.0
53842.0,STARLINK-4754,PAYLOAD,2023-06-11 06:56:44,15.08855369,0.0001269,53.2159,114.0411,97.7778,262.3358,9.9269e-05,1.293e-05,0.0,0 STARLINK-4754,1 53842U 22114AA  23162.28939939  .00001293  00000-0  99269-4 0  9992,2 53842  53.2159 114.0411 0001269  97.7778 262.3358 15.08855369 41109,6917.833,95.437,540.576,538.821,0.0
53842.0,STARLINK-4754,PAYLOAD,2023-06-11 13:18:17,15.08840744,0.0001162,53.2152,112.8463,84.6867,275.4258,2.3108e-05,8e-07,0.0,0 STARLINK-4754,1 53842U 22114AA  23162.55437040  .00000080  00000-0  23108-4 0  9990,2 53842  53.2152 112.8463 0001162  84.6867 275.4258 15.08840744 41689,6917.878,95.438,540.547,538.939,0.0
53842.0,STARLINK-4754,PAYLOAD,2023-06-11 21:15:14,15.08829223,0.0001444,53.2165,111.3643,96.911,263.2047,-2.5548e-05,-6.94e-06,0.0,0 STARLINK-4754,1 53842U 22114AA  23162.88558131 -.00000694  00000-0 -25548-4 0  9994,2 53842  53.2165 111.3643 0001444  96.9110 263.2047 15.08829223 41733,6917.913,95.438,540.777,538.779,0.0
53842.0,STARLINK-4754,PAYLOAD,2023-06-12 03:36:46,15.08830518,0.0001328,53.2167,110.1764,107.8322,252.2815,-6.9777e-06,-3.99e-06,0.0,0 STARLINK-4754,1 53842U 22114AA  23163.15054116 -.00000399  00000-0 -69777-5 0  9994,2 53842  53.2167 110.1764 0001328 107.8322 252.2815 15.08830518 41239,6917.909,95.438,540.693,538.856,0.0
53842.0,STARLINK-4754,PAYLOAD,2023-06-12 13:09:05,15.08831901,0.0001308,53.2169,108.3924,106.9485,253.165,3.1602e-06,-2.38e-06,0.0,0 STARLINK-4754,1 53842U 22114AA  23163.54798219 -.00000238  00000-0  31602-5 0  9993,2 53842  53.2169 108.3924 0001308 106.9485 253.1650 15.08831901 41836,6917.905,95.438,540.675,538.865,0.0
53842.0,STARLINK-4754,PAYLOAD,2023-06-12 21:06:01,15.08837651,0.0001325,53.2172,106.9053,107.2485,252.8652,-5.9294e-05,-1.231e-05,0.0,0 STARLINK-4754,1 53842U 22114AA  23163.87918242 -.00001231  00000-0 -59294-4 0  9990,2 53842  53.2172 106.9053 0001325 107.2485 252.8652 15.08837651 41881,6917.888,95.438,540.669,538.836,0.0
53842.0,STARLINK-4754,PAYLOAD,2023-06-13 03:27:33,15.08839496,0.0001299,53.2171,105.7161,108.5572,251.5562,-4.3765e-05,-9.84e-06,0.0,0 STARLINK-4754,1 53842U 22114AA  23164.14414091 -.00000984  00000-0 -43765-4 0  9994,2 53842  53.2171 105.7161 0001299 108.5572 251.5562 15.08839496 41388,6917.882,95.438,540.646,538.848,0.0
